start=new Date('2023-06-04T00:00:00.000Z').valueOf();
sats=[{"CENTER_NAME":"EARTH","MEAN_MOTION_DDOT":"0.0000000000000","LAUNCH_DATE":"2022-09-19","TIME_SYSTEM":"UTC","REV_AT_EPOCH":"4072","SITE":"AFETR","MEAN_MOTION_DOT":"-0.00000134","EPOCH":"2023-06-03T08:18:26.220384","PERIAPSIS":"539.168","TLE_LINE2":"2 53867  53.2162 129.7895 0000846  75.3828 284.7258 15.08837505 40723","TLE_LINE1":"1 53867U 22114BB  23154.34613681 -.00000134  00000-0  96377-5 0  9992","ELEMENT_SET_NO":"999","COUNTRY_CODE":"US","INCLINATION":"53.2162","ECCENTRICITY":"0.00008460","SEMIMAJOR_AXIS":"6917.888","RA_OF_ASC_NODE":"129.7895","OBJECT_NAME":"STARLINK-4793","APOAPSIS":"540.338","EPHEMERIS_TYPE":"0","BSTAR":"0.00000963770000","OBJECT_ID":"2022-114BB","MEAN_ANOMALY":"284.7258","NORAD_CAT_ID":"53867","GP_ID":"233111948","DECAY_DATE":null,"MEAN_MOTION":"15.08837505","PERIOD":"95.438","REF_FRAME":"TEME","OBJECT_TYPE":"PAYLOAD","FILE":"3924076","RCS_SIZE":"LARGE","MEAN_ELEMENT_THEORY":"SGP4","CLASSIFICATION_TYPE":"U","ARG_OF_PERICENTER":"75.3828"},{"SEMIMAJOR_AXIS":"6917.896","RA_OF_ASC_NODE":"117.3377","OBJECT_NAME":"STARLINK-4789","EPOCH":"2023-06-03T20:36:19.953792","PERIAPSIS":"539.016","TLE_LINE2":"2 53868  53.2170 117.3377 0001077  87.0541 273.0574 15.08834826 40949","TLE_LINE1":"1 53868U 22114BC  23154.85856428 -.00000928  00000-0 -40263-4 0  9991","ELEMENT_SET_NO":"999","COUNTRY_CODE":"US","INCLINATION":"53.2170","ECCENTRICITY":"0.00010770","CENTER_NAME":"EARTH","MEAN_MOTION_DDOT":"0.0000000000000","LAUNCH_DATE":"2022-09-19","TIME_SYSTEM":"UTC","REV_AT_EPOCH":"4094","SITE":"AFETR","MEAN_MOTION_DOT":"-0.00000928","CLASSIFICATION_TYPE":"U","ARG_OF_PERICENTER":"87.0541","RCS_SIZE":"LARGE","MEAN_ELEMENT_THEORY":"SGP4","GP_ID":"233143504","MEAN_MOTION":"15.08834826","DECAY_DATE":null,"REF_FRAME":"TEME","PERIOD":"95.438","OBJECT_TYPE":"PAYLOAD","FILE":"3924324","APOAPSIS":"540.506","EPHEMERIS_TYPE":"0","OBJECT_ID":"2022-114BC","BSTAR":"-0.00004026300000","MEAN_ANOMALY":"273.0574","NORAD_CAT_ID":"53868"},{"ARG_OF_PERICENTER":"87.3937","CLASSIFICATION_TYPE":"U","MEAN_ELEMENT_THEORY":"SGP4","RCS_SIZE":"LARGE","FILE":"3924076","OBJECT_TYPE":"PAYLOAD","PERIOD":"95.438","REF_FRAME":"TEME","MEAN_MOTION":"15.08837569","DECAY_DATE":null,"GP_ID":"233111448","NORAD_CAT_ID":"53869","MEAN_ANOMALY":"272.7167","BSTAR":"0.00003848600000","OBJECT_ID":"2022-114BD","EPHEMERIS_TYPE":"0","APOAPSIS":"540.430","OBJECT_NAME":"STARLINK-4810","RA_OF_ASC_NODE":"129.5633","SEMIMAJOR_AXIS":"6917.888","ECCENTRICITY":"0.00009790","INCLINATION":"53.2156","COUNTRY_CODE":"US","ELEMENT_SET_NO":"999","TLE_LINE2":"2 53869  53.2156 129.5633 0000979  87.3937 272.7167 15.08837569 40723","TLE_LINE1":"1 53869U 22114BD  23154.30929278  .00000325  00000-0  38486-4 0  9999","EPOCH":"2023-06-03T07:25:22.896192","PERIAPSIS":"539.076","MEAN_MOTION_DOT":"0.00000325","SITE":"AFETR","REV_AT_EPOCH":"4072","LAUNCH_DATE":"2022-09-19","TIME_SYSTEM":"UTC","CENTER_NAME":"EARTH","MEAN_MOTION_DDOT":"0.0000000000000"},{"SEMIMAJOR_AXIS":"6917.883","OBJECT_NAME":"STARLINK-4732","RA_OF_ASC_NODE":"120.3212","TLE_LINE1":"1 53870U 22114BE  23154.19984444 -.00000858  00000-0 -35844-4 0  9992","TLE_LINE2":"2 53870  53.2172 120.3212 0001345  84.9746 275.1400 15.08839134 40844","PERIAPSIS":"538.818","EPOCH":"2023-06-03T04:47:46.559616","COUNTRY_CODE":"US","ELEMENT_SET_NO":"999","ECCENTRICITY":"0.00013450","INCLINATION":"53.2172","MEAN_MOTION_DDOT":"0.0000000000000","CENTER_NAME":"EARTH","LAUNCH_DATE":"2022-09-19","TIME_SYSTEM":"UTC","SITE":"AFETR","REV_AT_EPOCH":"4084","MEAN_MOTION_DOT":"-0.00000858","CLASSIFICATION_TYPE":"U","ARG_OF_PERICENTER":"84.9746","RCS_SIZE":"LARGE","MEAN_ELEMENT_THEORY":"SGP4","GP_ID":"233111699","PERIOD":"95.438","REF_FRAME":"TEME","MEAN_MOTION":"15.08839134","DECAY_DATE":null,"OBJECT_TYPE":"PAYLOAD","FILE":"3924076","APOAPSIS":"540.678","BSTAR":"-0.00003584400000","OBJECT_ID":"2022-114BE","EPHEMERIS_TYPE":"0","NORAD_CAT_ID":"53870","MEAN_ANOMALY":"275.1400"},{"APOAPSIS":"540.698","NORAD_CAT_ID":"53871","MEAN_ANOMALY":"258.4240","OBJECT_ID":"2022-114BF","BSTAR":"-0.00003364900000","EPHEMERIS_TYPE":"0","REF_FRAME":"TEME","PERIOD":"95.438","DECAY_DATE":null,"MEAN_MOTION":"15.08833555","GP_ID":"233112449","OBJECT_TYPE":"PAYLOAD","FILE":"3924076","RCS_SIZE":"LARGE","MEAN_ELEMENT_THEORY":"SGP4","CLASSIFICATION_TYPE":"U","ARG_OF_PERICENTER":"101.6904","LAUNCH_DATE":"2022-09-19","TIME_SYSTEM":"UTC","MEAN_MOTION_DDOT":"0.0000000000000","CENTER_NAME":"EARTH","MEAN_MOTION_DOT":"-0.00000823","REV_AT_EPOCH":"4086","SITE":"AFETR","TLE_LINE2":"2 53871  53.2172 119.6138 0001348 101.6904 258.4240 15.08833555 40868","TLE_LINE1":"1 53871U 22114BF  23154.31486052 -.00000823  00000-0 -33649-4 0  9992","EPOCH":"2023-06-03T07:33:23.948928","PERIAPSIS":"538.833","ECCENTRICITY":"0.00013480","INCLINATION":"53.2172","COUNTRY_CODE":"US","ELEMENT_SET_NO":"999","OBJECT_NAME":"STARLINK-4740","RA_OF_ASC_NODE":"119.6138","SEMIMAJOR_AXIS":"6917.900"},{"GP_ID":"233112450","REF_FRAME":"TEME","PERIOD":"95.438","MEAN_MOTION":"15.08840205","DECAY_DATE":null,"OBJECT_TYPE":"PAYLOAD","FILE":"3924076","APOAPSIS":"540.488","BSTAR":"0.00003103100000","OBJECT_ID":"2022-119A","EPHEMERIS_TYPE":"0","NORAD_CAT_ID":"53886","MEAN_ANOMALY":"275.0129","CLASSIFICATION_TYPE":"U","ARG_OF_PERICENTER":"85.0986","RCS_SIZE":"LARGE","MEAN_ELEMENT_THEORY":"SGP4","TLE_LINE2":"2 53886  53.2156 179.3679 0001074  85.0986 275.0129 15.08840205 39173","TLE_LINE1":"1 53886U 22119A   23154.47771991  .00000206  00000-0  31031-4 0  9995","EPOCH":"2023-06-03T11:27:55.000224","PERIAPSIS":"539.002","COUNTRY_CODE":"US","ELEMENT_SET_NO":"999","ECCENTRICITY":"0.00010740","INCLINATION":"53.2156","MEAN_MOTION_DDOT":"0.0000000000000","CENTER_NAME":"EARTH","LAUNCH_DATE":"2022-09-24","TIME_SYSTEM":"UTC","REV_AT_EPOCH":"3917","SITE":"AFETR","MEAN_MOTION_DOT":"0.00000206","SEMIMAJOR_AXIS":"6917.880","OBJECT_NAME":"STARLINK-5028","RA_OF_ASC_NODE":"179.3679"},{"MEAN_MOTION_DOT":"-0.00000388","SITE":"AFETR","REV_AT_EPOCH":"3922","TIME_SYSTEM":"UTC","LAUNCH_DATE":"2022-09-24","MEAN_MOTION_DDOT":"0.0000000000000","CENTER_NAME":"EARTH","ECCENTRICITY":"0.00012130","INCLINATION":"53.2155","COUNTRY_CODE":"US","ELEMENT_SET_NO":"999","TLE_LINE1":"1 53887U 22119B   23154.79786957 -.00000388  00000-0 -62998-5 0  9999","TLE_LINE2":"2 53887  53.2155 177.8123 0001213  88.4190 271.6941 15.08837030 39221","EPOCH":"2023-06-03T19:08:55.930848","PERIAPSIS":"538.915","OBJECT_NAME":"STARLINK-5029","RA_OF_ASC_NODE":"177.8123","SEMIMAJOR_AXIS":"6917.889","NORAD_CAT_ID":"53887","MEAN_ANOMALY":"271.6941","BSTAR":"-0.00000629980000","OBJECT_ID":"2022-119B","EPHEMERIS_TYPE":"0","APOAPSIS":"540.594","OBJECT_TYPE":"PAYLOAD","FILE":"3924324","REF_FRAME":"TEME","PERIOD":"95.438","MEAN_MOTION":"15.08837030","DECAY_DATE":null,"GP_ID":"233144006","MEAN_ELEMENT_THEORY":"SGP4","RCS_SIZE":"LARGE","ARG_OF_PERICENTER":"88.4190","CLASSIFICATION_TYPE":"U"},{"GP_ID":"233110949","REF_FRAME":"TEME","PERIOD":"95.438","DECAY_DATE":null,"MEAN_MOTION":"15.08839951","OBJECT_TYPE":"PAYLOAD","FILE":"3924076","APOAPSIS":"540.523","BSTAR":"0.00002468000000","OBJECT_ID":"2022-119C","EPHEMERIS_TYPE":"0","NORAD_CAT_ID":"53888","MEAN_ANOMALY":"273.6500","CLASSIFICATION_TYPE":"U","ARG_OF_PERICENTER":"86.4621","RCS_SIZE":"LARGE","MEAN_ELEMENT_THEORY":"SGP4","TLE_LINE2":"2 53888  53.2150 179.9405 0001124  86.4621 273.6500 15.08839951 39150","TLE_LINE1":"1 53888U 22119C   23154.34155535  .00000105  00000-0  24680-4 0  9993","EPOCH":"2023-06-03T08:11:50.382240","PERIAPSIS":"538.968","COUNTRY_CODE":"US","ELEMENT_SET_NO":"999","ECCENTRICITY":"0.00011240","INCLINATION":"53.2150","MEAN_MOTION_DDOT":"0.0000000000000","CENTER_NAME":"EARTH","LAUNCH_DATE":"2022-09-24","TIME_SYSTEM":"UTC","REV_AT_EPOCH":"3915","SITE":"AFETR","MEAN_MOTION_DOT":"0.00000105","SEMIMAJOR_AXIS":"6917.881","OBJECT_NAME":"STARLINK-5034","RA_OF_ASC_NODE":"179.9405"},{"RA_OF_ASC_NODE":"177.8348","OBJECT_NAME":"STARLINK-5031","SEMIMAJOR_AXIS":"6917.882","PERIAPSIS":"538.947","EPOCH":"2023-06-03T19:14:14.031456","TLE_LINE1":"1 53889U 22119D   23154.80155129  .00000330  00000-0  38802-4 0  9995","TLE_LINE2":"2 53889  53.2157 177.8348 0001155  85.6773 274.4351 15.08839635 39224","INCLINATION":"53.2157","ECCENTRICITY":"0.00011550","ELEMENT_SET_NO":"999","COUNTRY_CODE":"US","LAUNCH_DATE":"2022-09-24","TIME_SYSTEM":"UTC","CENTER_NAME":"EARTH","MEAN_MOTION_DDOT":"0.0000000000000","MEAN_MOTION_DOT":"0.00000330","SITE":"AFETR","REV_AT_EPOCH":"3922","CLASSIFICATION_TYPE":"U","ARG_OF_PERICENTER":"85.6773","RCS_SIZE":"LARGE","MEAN_ELEMENT_THEORY":"SGP4","MEAN_MOTION":"15.08839635","DECAY_DATE":null,"PERIOD":"95.438","REF_FRAME":"TEME","GP_ID":"233145008","FILE":"3924324","OBJECT_TYPE":"PAYLOAD","APOAPSIS":"540.546","MEAN_ANOMALY":"274.4351","NORAD_CAT_ID":"53889","EPHEMERIS_TYPE":"0","OBJECT_ID":"2022-119D","BSTAR":"0.00003880200000"},{"SEMIMAJOR_AXIS":"6917.878","RA_OF_ASC_NODE":"142.9407","OBJECT_NAME":"STARLINK-5050","PERIAPSIS":"538.851","EPOCH":"2023-06-03T16:42:28.795104","TLE_LINE2":"2 53890  53.2159 142.9407 0001289  86.8780 273.2359 15.08840823 39705","TLE_LINE1":"1 53890U 22119E   23154.69616661  .00000896  00000-0  74368-4 0  9991","ELEMENT_SET_NO":"999","COUNTRY_CODE":"US","INCLINATION":"53.2159","ECCENTRICITY":"0.00012890","MEAN_MOTION_DDOT":"0.0000000000000","CENTER_NAME":"EARTH","LAUNCH_DATE":"2022-09-24","TIME_SYSTEM":"UTC","SITE":"AFETR","REV_AT_EPOCH":"3970","MEAN_MOTION_DOT":"0.00000896","CLASSIFICATION_TYPE":"U","ARG_OF_PERICENTER":"86.8780","RCS_SIZE":"LARGE","MEAN_ELEMENT_THEORY":"SGP4","GP_ID":"233144758","MEAN_MOTION":"15.08840823","DECAY_DATE":null,"PERIOD":"95.438","REF_FRAME":"TEME","FILE":"3924324","OBJECT_TYPE":"PAYLOAD","APOAPSIS":"540.635","EPHEMERIS_TYPE":"0","OBJECT_ID":"2022-119E","BSTAR":"0.00007436800000","MEAN_ANOMALY":"273.2359","NORAD_CAT_ID":"53890"}];
